0 IMAGE
1 26113U 00017A   13280.65483727  .00000164  00000-0 -41714-1 0  4431
2 26113 092.8267 232.8462 7376103 100.6722 356.6573 01.68645232 83352
0 IMAGE
1 26113U 00017A   13287.77135480  .00000191  00000-0  24203-1 0  4456
2 26113 092.8242 232.9444 7371514 099.8755 357.3382 01.68643457 83478
0 IMAGE
1 26113U 00017A   13290.73667120  .00000207  00000-0  40024-1 0  4465
2 26113 092.8235 232.9862 7369711 099.5444 357.6711 01.68643351 83520
0 IMAGE
1 26113U 00017A   13293.70111554  .00000251  00000-0  52652-1 0  4470
2 26113 092.8228 233.0288 7367958 099.2131 357.4744 01.68643467 83574
